*******************************************************************************
Ephemeris / WWW_USER Mon Mar 24 07:51:50 2025 Pasadena, USA      / Horizons    
*******************************************************************************
Target body name: (2018 TS1)                      {source: JPL#6}
Center body name: Earth (399)                     {source: DE441}
Center-site name: Mauna Kea
*******************************************************************************
Start time      : A.D. 2018-Oct-27 04:00:00.0000 UT      
Stop  time      : A.D. 2018-Oct-27 16:11:00.0000 UT      
Step-size       : 1 minutes
*******************************************************************************
Target pole/equ : undefined
Target radii    : undefined                                                    
Center geodetic : 204.5278, 19.8260847, 4.21024   {E-lon(deg),Lat(deg),Alt(km)}
Center cylindric: 204.5278, 6006.35451, 2151.0229 {E-lon(deg),Dxy(km),Dz(km)}
Center pole/equ : ITRF93                          {East-longitude positive}
Center radii    : 6378.137, 6378.137, 6356.752 km {Equator_a, b, pole_c}       
Target primary  : Sun
Vis. interferer : MOON (R_eq= 1737.400) km        {source: DE441}
Rel. light bend : Sun                             {source: DE441}
Rel. lght bnd GM: 1.3271E+11 km^3/s^2                                          
Small-body perts: Yes                             {source: SB441-N16}
Atmos refraction: NO (AIRLESS)
RA format       : HMS
Time format     : CAL 
Calendar mode   : Mixed Julian/Gregorian
RTS-only print  : NO       
EOP file        : eop.250321.p250617                                           
EOP coverage    : DATA-BASED 1962-JAN-20 TO 2025-MAR-21. PREDICTS-> 2025-JUN-16
Units conversion: 1 au= 149597870.700 km, c= 299792.458 km/s, 1 day= 86400.0 s 
Table cut-offs 1: Elevation (-90.0deg=NO ),Airmass (>38.000=NO), Daylight (YES)
Table cut-offs 2: Solar elongation (  0.0,180.0=NO ),Local Hour Angle( 0.0=NO )
Table cut-offs 3: RA/DEC angular rate (     0.0=NO )                           
*******************************************************************************
Initial IAU76/J2000 heliocentric ecliptic osculating elements (au, days, deg.):
  EPOCH=  2458397.5 ! 2018-Oct-06.00 (TDB)         Residual RMS= .30565        
   EC= .4232280089037878   QR= .7951431742456924   TP= 2458457.9340165281      
   OM= 356.454891650426    W=  97.01949783285009   IN= 2.243887958983723       
  Equivalent ICRF heliocentric cartesian coordinates (au, au/d):
   X= 1.037748414669454E+00  Y= 2.036665248544260E-01  Z= 1.007134111375925E-01
  VX=-1.028941390482545E-02 VY= 1.387292408111162E-02 VZ= 6.642652492995660E-03
Asteroid physical parameters (km, seconds, rotational period in hours):        
   GM= n.a.                RAD= n.a.               ROTPER= n.a.                
   H= 25.7                 G= .150                 B-V= n.a.                   
                           ALBEDO= n.a.            STYP= n.a.                  
*******************************************************************************
 Date__(UT)__HR:MN     R.A._________(ICRF)_________DEC
******************************************************
$$SOE
 2018-Oct-27 06:03  m  13 16 32.094159 +10 29 46.43174
 2018-Oct-27 06:04  m  13 16 32.033382 +10 29 43.81720
 2018-Oct-27 06:05  m  13 16 31.972718 +10 29 41.20318
 2018-Oct-27 06:06  m  13 16 31.912169 +10 29 38.58968
 2018-Oct-27 06:07  m  13 16 31.851733 +10 29 35.97672
 2018-Oct-27 06:08  m  13 16 31.791410 +10 29 33.36428
 2018-Oct-27 06:09  m  13 16 31.731200 +10 29 30.75236
 2018-Oct-27 06:10  m  13 16 31.671102 +10 29 28.14098
 2018-Oct-27 06:11  m  13 16 31.611116 +10 29 25.53013
 2018-Oct-27 06:12  m  13 16 31.551242 +10 29 22.91981
 2018-Oct-27 06:13  m  13 16 31.491478 +10 29 20.31003
 2018-Oct-27 06:14  m  13 16 31.431825 +10 29 17.70078
 2018-Oct-27 06:15  m  13 16 31.372282 +10 29 15.09206
 2018-Oct-27 06:16  m  13 16 31.312848 +10 29 12.48388
 2018-Oct-27 06:17  m  13 16 31.253524 +10 29 09.87624
 2018-Oct-27 06:18  m  13 16 31.194308 +10 29 07.26913
 2018-Oct-27 06:19  m  13 16 31.135201 +10 29 04.66257
 2018-Oct-27 06:20  m  13 16 31.076201 +10 29 02.05654
 2018-Oct-27 06:21  m  13 16 31.017308 +10 28 59.45106
 2018-Oct-27 06:22  m  13 16 30.958522 +10 28 56.84611
 2018-Oct-27 06:23  m  13 16 30.899843 +10 28 54.24172
 2018-Oct-27 06:24  m  13 16 30.841270 +10 28 51.63786
 2018-Oct-27 06:25  m  13 16 30.782801 +10 28 49.03455
 2018-Oct-27 06:26  m  13 16 30.724438 +10 28 46.43179
 2018-Oct-27 06:27  m  13 16 30.666179 +10 28 43.82957
 2018-Oct-27 06:28  m  13 16 30.608025 +10 28 41.22790
 2018-Oct-27 06:29  m  13 16 30.549974 +10 28 38.62678
 2018-Oct-27 06:30  m  13 16 30.492025 +10 28 36.02621
 2018-Oct-27 06:31  m  13 16 30.434180 +10 28 33.42619
 2018-Oct-27 06:32  m  13 16 30.376436 +10 28 30.82672
 2018-Oct-27 06:33  m  13 16 30.318794 +10 28 28.22781
 2018-Oct-27 06:34  m  13 16 30.261253 +10 28 25.62945
 2018-Oct-27 06:35  m  13 16 30.203813 +10 28 23.03164
 2018-Oct-27 06:36  m  13 16 30.146473 +10 28 20.43439
 2018-Oct-27 06:37  m  13 16 30.089233 +10 28 17.83770
 2018-Oct-27 06:38  m  13 16 30.032091 +10 28 15.24156
 2018-Oct-27 06:39  m  13 16 29.975049 +10 28 12.64599
 2018-Oct-27 06:40  m  13 16 29.918104 +10 28 10.05097
 2018-Oct-27 06:41  m  13 16 29.861257 +10 28 07.45651
 2018-Oct-27 06:42  m  13 16 29.804508 +10 28 04.86261
 2018-Oct-27 06:43  m  13 16 29.747855 +10 28 02.26927
 2018-Oct-27 06:44  m  13 16 29.691298 +10 27 59.67650
 2018-Oct-27 06:45  m  13 16 29.634837 +10 27 57.08429
 2018-Oct-27 06:46  m  13 16 29.578471 +10 27 54.49264
 2018-Oct-27 06:47  m  13 16 29.522199 +10 27 51.90156
 2018-Oct-27 06:48  m  13 16 29.466022 +10 27 49.31105
 2018-Oct-27 06:49  m  13 16 29.409938 +10 27 46.72110
 2018-Oct-27 06:50  m  13 16 29.353948 +10 27 44.13172
 2018-Oct-27 06:51  m  13 16 29.298050 +10 27 41.54291
 2018-Oct-27 06:52  m  13 16 29.242244 +10 27 38.95467
 2018-Oct-27 06:53  m  13 16 29.186530 +10 27 36.36700
 2018-Oct-27 06:54  m  13 16 29.130907 +10 27 33.77990
 2018-Oct-27 06:55  m  13 16 29.075375 +10 27 31.19337
 2018-Oct-27 06:56  m  13 16 29.019932 +10 27 28.60741
 2018-Oct-27 06:57  m  13 16 28.964579 +10 27 26.02203
 2018-Oct-27 06:58  m  13 16 28.909315 +10 27 23.43722
 2018-Oct-27 06:59  m  13 16 28.854140 +10 27 20.85299
 2018-Oct-27 07:00  m  13 16 28.799052 +10 27 18.26933
 2018-Oct-27 07:01  m  13 16 28.744052 +10 27 15.68625
 2018-Oct-27 07:02  m  13 16 28.689139 +10 27 13.10375
 2018-Oct-27 07:03  m  13 16 28.634312 +10 27 10.52183
 2018-Oct-27 07:04  m  13 16 28.579571 +10 27 07.94048
 2018-Oct-27 07:05  m  13 16 28.524915 +10 27 05.35971
 2018-Oct-27 07:06  m  13 16 28.470344 +10 27 02.77953
 2018-Oct-27 07:07  m  13 16 28.415857 +10 27 00.19992
 2018-Oct-27 07:08  m  13 16 28.361454 +10 26 57.62090
 2018-Oct-27 07:09  m  13 16 28.307134 +10 26 55.04245
 2018-Oct-27 07:10  m  13 16 28.252897 +10 26 52.46460
 2018-Oct-27 07:11  m  13 16 28.198742 +10 26 49.88732
 2018-Oct-27 07:12  m  13 16 28.144668 +10 26 47.31063
 2018-Oct-27 07:13  m  13 16 28.090675 +10 26 44.73453
 2018-Oct-27 07:14  m  13 16 28.036763 +10 26 42.15901
 2018-Oct-27 07:15  m  13 16 27.982931 +10 26 39.58408
 2018-Oct-27 07:16  m  13 16 27.929178 +10 26 37.00973
 2018-Oct-27 07:17  m  13 16 27.875504 +10 26 34.43597
 2018-Oct-27 07:18  m  13 16 27.821908 +10 26 31.86280
 2018-Oct-27 07:19  m  13 16 27.768390 +10 26 29.29023
 2018-Oct-27 07:20  m  13 16 27.714949 +10 26 26.71824
 2018-Oct-27 07:21  m  13 16 27.661584 +10 26 24.14684
 2018-Oct-27 07:22  m  13 16 27.608296 +10 26 21.57603
 2018-Oct-27 07:23  m  13 16 27.555083 +10 26 19.00581
 2018-Oct-27 07:24  m  13 16 27.501945 +10 26 16.43619
 2018-Oct-27 07:25  m  13 16 27.448882 +10 26 13.86716
 2018-Oct-27 07:26  m  13 16 27.395892 +10 26 11.29872
 2018-Oct-27 07:27  m  13 16 27.342976 +10 26 08.73088
 2018-Oct-27 07:28  m  13 16 27.290132 +10 26 06.16363
 2018-Oct-27 07:29  m  13 16 27.237361 +10 26 03.59698
 2018-Oct-27 07:30  m  13 16 27.184661 +10 26 01.03092
 2018-Oct-27 07:31  m  13 16 27.132032 +10 25 58.46546
 2018-Oct-27 07:32  m  13 16 27.079474 +10 25 55.90059
 2018-Oct-27 07:33  m  13 16 27.026985 +10 25 53.33633
 2018-Oct-27 07:34  m  13 16 26.974566 +10 25 50.77266
 2018-Oct-27 07:35  m  13 16 26.922216 +10 25 48.20959
 2018-Oct-27 07:36  m  13 16 26.869934 +10 25 45.64712
 2018-Oct-27 07:37  m  13 16 26.817719 +10 25 43.08525
 2018-Oct-27 07:38  m  13 16 26.765572 +10 25 40.52398
 2018-Oct-27 07:39  m  13 16 26.713491 +10 25 37.96331
 2018-Oct-27 07:40  m  13 16 26.661476 +10 25 35.40325
 2018-Oct-27 07:41  m  13 16 26.609526 +10 25 32.84378
 2018-Oct-27 07:42  m  13 16 26.557641 +10 25 30.28492
 2018-Oct-27 07:43  m  13 16 26.505820 +10 25 27.72666
 2018-Oct-27 07:44  m  13 16 26.454063 +10 25 25.16900
 2018-Oct-27 07:45  m  13 16 26.402369 +10 25 22.61194
 2018-Oct-27 07:46  m  13 16 26.350737 +10 25 20.05549
 2018-Oct-27 07:47  m  13 16 26.299168 +10 25 17.49965
 2018-Oct-27 07:48  m  13 16 26.247659 +10 25 14.94441
 2018-Oct-27 07:49  m  13 16 26.196212 +10 25 12.38978
 2018-Oct-27 07:50  m  13 16 26.144824 +10 25 09.83575
 2018-Oct-27 07:51  m  13 16 26.093496 +10 25 07.28233
 2018-Oct-27 07:52  m  13 16 26.042227 +10 25 04.72951
 2018-Oct-27 07:53  m  13 16 25.991016 +10 25 02.17730
 2018-Oct-27 07:54  m  13 16 25.939863 +10 24 59.62570
 2018-Oct-27 07:55  m  13 16 25.888767 +10 24 57.07471
 2018-Oct-27 07:56  m  13 16 25.837728 +10 24 54.52433
 2018-Oct-27 07:57  m  13 16 25.786745 +10 24 51.97456
 2018-Oct-27 07:58  m  13 16 25.735818 +10 24 49.42539
 2018-Oct-27 07:59  m  13 16 25.684945 +10 24 46.87684
 2018-Oct-27 08:00  m  13 16 25.634127 +10 24 44.32889
 2018-Oct-27 08:01  m  13 16 25.583362 +10 24 41.78156
 2018-Oct-27 08:02  m  13 16 25.532650 +10 24 39.23483
 2018-Oct-27 08:03  m  13 16 25.481991 +10 24 36.68872
 2018-Oct-27 08:04  m  13 16 25.431384 +10 24 34.14322
 2018-Oct-27 08:05  m  13 16 25.380828 +10 24 31.59833
